{
  "type": "FeatureCollection",
  "features": [
    {
      "type": "Feature",
      "properties": {
        "norad_id": 30013,
        "name": "FENGYUN 1C DEB",
        "group": "fengyun-1c-debris",
        "lat": 75.2991567787114,
        "lon": -118.50644321618502,
        "alt_km": 938.7955254443023,
        "timestamp": "2025-12-27T15:27:11.463917+00:00",
        "meta_object_name": "FENGYUN 1C DEB",
        "meta_object_id": "1999-025MN",
        "meta_epoch": "2025-12-27T01:25:08.735232",
        "meta_mean_motion": 13.87834654,
        "meta_eccentricity": 0.01277706,
        "meta_inclination": 99.5794,
        "meta_ra_of_asc_node": 20.8284,
        "meta_arg_of_pericenter": 6.0019,
        "meta_mean_anomaly": 53.7254,
        "meta_ephemeris_type": 0,
        "meta_classification_type": "U",
        "meta_norad_cat_id": 30013,
        "meta_element_set_no": 999,
        "meta_rev_at_epoch": 95880,
        "meta_bstar": 0.00026991268,
        "meta_mean_motion_dot": 2.95e-06,
        "meta_mean_motion_ddot": 0,
        "tle_line1": "1 30013U 99025MN  25361.05912888  .00000295  00000+0  26991-3 0  9995",
        "tle_line2": "2 30013  99.5794  20.8284 0127770   6.0019  53.7254 13.87834654958801"
      },
      "geometry": {
        "type": "Point",
        "coordinates": [
          -118.50644321618502,
          75.2991567787114
        ]
      }
    },
    {
      "type": "Feature",
      "properties": {
        "norad_id": 30015,
        "name": "FENGYUN 1C DEB",
        "group": "fengyun-1c-debris",
        "lat": 78.34249405778932,
        "lon": -122.56689087583085,
        "alt_km": 754.7223242957716,
        "timestamp": "2025-12-27T15:27:11.463927+00:00",
        "meta_object_name": "FENGYUN 1C DEB",
        "meta_object_id": "1999-025MQ",
        "meta_epoch": "2025-12-26T19:42:01.308672",
        "meta_mean_motion": 14.30838879,
        "meta_eccentricity": 0.00386797,
        "meta_inclination": 99.2286,
        "meta_ra_of_asc_node": 4.5592,
        "meta_arg_of_pericenter": 84.9237,
        "meta_mean_anomaly": 95.0039,
        "meta_ephemeris_type": 0,
        "meta_classification_type": "U",
        "meta_norad_cat_id": 30015,
        "meta_element_set_no": 999,
        "meta_rev_at_epoch": 98374,
        "meta_bstar": 0.00056441561,
        "meta_mean_motion_dot": 1.444e-05,
        "meta_mean_motion_ddot": 0,
        "tle_line1": "1 30015U 99025MQ  25360.82084848  .00001444  00000+0  56442-3 0  9998",
        "tle_line2": "2 30015  99.2286   4.5592 0038679  84.9237  95.0039 14.30838879983746"
      },
      "geometry": {
        "type": "Point",
        "coordinates": [
          -122.56689087583085,
          78.34249405778932
        ]
      }
    },
    {
      "type": "Feature",
      "properties": {
        "norad_id": 30016,
        "name": "FENGYUN 1C DEB",
        "group": "fengyun-1c-debris",
        "lat": -81.05936596286895,
        "lon": 109.91029760560407,
        "alt_km": 637.2874786752482,
        "timestamp": "2025-12-27T15:27:11.463937+00:00",
        "meta_object_name": "FENGYUN 1C DEB",
        "meta_object_id": "1999-025MR",
        "meta_epoch": "2025-12-27T07:48:30.773952",
        "meta_mean_motion": 14.78896626,
        "meta_eccentricity": 0.00457183,
        "meta_inclination": 98.9048,
        "meta_ra_of_asc_node": 14.8295,
        "meta_arg_of_pericenter": 355.4995,
        "meta_mean_anomaly": 19.4398,
        "meta_ephemeris_type": 0,
        "meta_classification_type": "U",
        "meta_norad_cat_id": 30016,
        "meta_element_set_no": 999,
        "meta_rev_at_epoch": 99669,
        "meta_bstar": 0.0021351904,
        "meta_mean_motion_dot": 0.00015983,
        "meta_mean_motion_ddot": 0,
        "tle_line1": "1 30016U 99025MR  25361.32535618  .00015983  00000+0  21352-2 0  9995",
        "tle_line2": "2 30016  98.9048  14.8295 0045718 355.4995  19.4398 14.78896626996694"
      },
      "geometry": {
        "type": "Point",
        "coordinates": [
          109.91029760560407,
          -81.05936596286895
        ]
      }
    },
    {
      "type": "Feature",
      "properties": {
        "norad_id": 30017,
        "name": "FENGYUN 1C DEB",
        "group": "fengyun-1c-debris",
        "lat": -14.733192811618919,
        "lon": -135.2207050420105,
        "alt_km": 627.1695130292164,
        "timestamp": "2025-12-27T15:27:11.463947+00:00",
        "meta_object_name": "FENGYUN 1C DEB",
        "meta_object_id": "1999-025MS",
        "meta_epoch": "2025-12-27T01:26:10.314240",
        "meta_mean_motion": 14.61228766,
        "meta_eccentricity": 0.02180798,
        "meta_inclination": 98.7526,
        "meta_ra_of_asc_node": 46.4832,
        "meta_arg_of_pericenter": 131.0973,
        "meta_mean_anomaly": 230.9286,
        "meta_ephemeris_type": 0,
        "meta_classification_type": "U",
        "meta_norad_cat_id": 30017,
        "meta_element_set_no": 999,
        "meta_rev_at_epoch": 653,
        "meta_bstar": 0.00017708125,
        "meta_mean_motion_dot": 1.159e-05,
        "meta_mean_motion_ddot": 0,
        "tle_line1": "1 30017U 99025MS  25361.05984160  .00001159  00000+0  17708-3 0  9997",
        "tle_line2": "2 30017  98.7526  46.4832 0218079 131.0973 230.9286 14.61228766  6535"
      },
      "geometry": {
        "type": "Point",
        "coordinates": [
          -135.2207050420105,
          -14.733192811618919
        ]
      }
    },
    {
      "type": "Feature",
      "properties": {
        "norad_id": 30018,
        "name": "FENGYUN 1C DEB",
        "group": "fengyun-1c-debris",
        "lat": 28.131709780884265,
        "lon": -89.82315630219654,
        "alt_km": 566.9985109857034,
        "timestamp": "2025-12-27T15:27:11.463957+00:00",
        "meta_object_name": "FENGYUN 1C DEB",
        "meta_object_id": "1999-025MT",
        "meta_epoch": "2025-12-27T05:14:38.580576",
        "meta_mean_motion": 14.73344863,
        "meta_eccentricity": 0.0116983,
        "meta_inclination": 98.7549,
        "meta_ra_of_asc_node": 84.992,
        "meta_arg_of_pericenter": 150.2327,
        "meta_mean_anomaly": 266.2073,
        "meta_ephemeris_type": 0,
        "meta_classification_type": "U",
        "meta_norad_cat_id": 30018,
        "meta_element_set_no": 999,
        "meta_rev_at_epoch": 650,
        "meta_bstar": 0.00089144301,
        "meta_mean_motion_dot": 6.377e-05,
        "meta_mean_motion_ddot": 0,
        "tle_line1": "1 30018U 99025MT  25361.21850209  .00006377  00000+0  89144-3 0  9992",
        "tle_line2": "2 30018  98.7549  84.9920 0116983 150.2327 266.2073 14.73344863  6506"
      },
      "geometry": {
        "type": "Point",
        "coordinates": [
          -89.82315630219654,
          28.131709780884265
        ]
      }
    },
    {
      "type": "Feature",
      "properties": {
        "norad_id": 30020,
        "name": "FENGYUN 1C DEB",
        "group": "fengyun-1c-debris",
        "lat": 16.048577138666083,
        "lon": -172.35249563875624,
        "alt_km": 971.4487125424203,
        "timestamp": "2025-12-27T15:27:11.463967+00:00",
        "meta_object_name": "FENGYUN 1C DEB",
        "meta_object_id": "1999-025MV",
        "meta_epoch": "2025-12-26T12:02:22.077024",
        "meta_mean_motion": 14.04488134,
        "meta_eccentricity": 0.0183737,
        "meta_inclination": 98.8472,
        "meta_ra_of_asc_node": 3.9661,
        "meta_arg_of_pericenter": 32.1242,
        "meta_mean_anomaly": 117.8653,
        "meta_ephemeris_type": 0,
        "meta_classification_type": "U",
        "meta_norad_cat_id": 30020,
        "meta_element_set_no": 999,
        "meta_rev_at_epoch": 96851,
        "meta_bstar": 0.000449,
        "meta_mean_motion_dot": 7.9e-06,
        "meta_mean_motion_ddot": 0,
        "tle_line1": "1 30020U 99025MV  25360.50164441  .00000790  00000+0  44900-3 0  9996",
        "tle_line2": "2 30020  98.8472   3.9661 0183737  32.1242 117.8653 14.04488134968510"
      },
      "geometry": {
        "type": "Point",
        "coordinates": [
          -172.35249563875624,
          16.048577138666083
        ]
      }
    },
    {
      "type": "Feature",
      "properties": {
        "norad_id": 30021,
        "name": "FENGYUN 1C DEB",
        "group": "fengyun-1c-debris",
        "lat": -12.729265557347864,
        "lon": -5.206107955385675,
        "alt_km": 892.127179463534,
        "timestamp": "2025-12-27T15:27:11.463977+00:00",
        "meta_object_name": "FENGYUN 1C DEB",
        "meta_object_id": "1999-025MW",
        "meta_epoch": "2025-12-27T05:20:12.756768",
        "meta_mean_motion": 14.04895621,
        "meta_eccentricity": 0.00719193,
        "meta_inclination": 98.8363,
        "meta_ra_of_asc_node": 352.3697,
        "meta_arg_of_pericenter": 246.0145,
        "meta_mean_anomaly": 129.7374,
        "meta_ephemeris_type": 0,
        "meta_classification_type": "U",
        "meta_norad_cat_id": 30021,
        "meta_element_set_no": 999,
        "meta_rev_at_epoch": 97135,
        "meta_bstar": 4.5860173e-05,
        "meta_mean_motion_dot": 3.2e-07,
        "meta_mean_motion_ddot": 0,
        "tle_line1": "1 30021U 99025MW  25361.22236987  .00000032  00000+0  45860-4 0  9998",
        "tle_line2": "2 30021  98.8363 352.3697 0071919 246.0145 129.7374 14.04895621971357"
      },
      "geometry": {
        "type": "Point",
        "coordinates": [
          -5.206107955385675,
          -12.729265557347864
        ]
      }
    }
  ]
}